SL-16 R/B               
1 22803U 93059B   26100.02666807  .00000251  00000+0  14797-3 0  9993
2 22803  70.9901 305.0449 0016679 169.7974 190.3491 14.17237605683976
ARIANE 40 R/B           
1 22830U 93061H   26100.19196732  .00000192  00000+0  86100-4 0  9991
2 22830  98.4862 168.4490 0010726 184.7266 175.3818 14.32878911698613
COSMOS 2278             
1 23087U 94023A   26100.28192255  .00000218  00000+0  13859-3 0  9990
2 23087  71.0502 109.0011 0009554 327.9389  32.1151 14.14376730649270
SL-16 R/B               
1 23088U 94023B   26100.17273824 -.00000092  00000+0 -22922-4 0  9995
2 23088  71.0031   4.7704 0005659 258.7504 101.2983 14.15020399650541
SL-16 R/B               
1 23343U 94074B   26100.03503795  .00000424  00000+0  63315-4 0  9991
2 23343  97.7060 129.5766 0007955 114.4741 275.7662 14.79445554691885
SL-16 R/B               
1 23405U 94077B   26100.21274147 -.00000053  00000+0 -28206-5 0  9990
2 23405  70.9812 286.1701 0001287 175.3709 184.7426 14.15566763620697
ARIANE 40+ R/B          
1 23561U 95021B   26100.23004822  .00000267  00000+0  98888-4 0  9993
2 23561  98.4446 171.2769 0007591  55.0874  13.6752 14.39796477623785
SL-16 R/B               
1 23705U 95058B   26100.29194922  .00000257  00000+0  15570-3 0  9995
2 23705  71.0186 113.9078 0010483  67.9558 292.2677 14.15499634572327
SL-16 R/B               
1 24298U 96051B   26100.25641201  .00000046  00000+0  51501-4 0  9991
2 24298  70.7579 108.4245 0012799  95.1919 265.0662 14.12424387526105
ORBVIEW 2 (SEASTAR)     
1 24883U 97037A   26100.20177114  .00000271  00000+0  11055-3 0  9997
2 24883  98.8623 265.3576 0001751 356.9743   3.1430 14.35518299512992
SL-16 R/B               
1 25400U 98043G   26099.88404046  .00000062  00000+0  45100-4 0  9996
2 25400  98.8302  53.4788 0008807 286.2220  73.7990 14.26057388443430
SL-16 R/B               
1 25407U 98045B   26100.28734833  .00000282  00000+0  16649-3 0  9991
2 25407  71.0087 115.1259 0008561 322.8481  37.2049 14.16196457431574
ISS (ZARYA)             
1 25544U 98067A   26100.19894350  .00006976  00000+0  13529-3 0  9998
2 25544  51.6328 276.5654 0006432 294.6645  65.3674 15.48858067561211
CZ-4B R/B               
1 25732U 99025C   26100.12208656  .00000029  00000+0  34886-4 0  9996
2 25732  98.6562 143.6495 0036020 253.9356 126.9829 14.18271886392628
OKEAN-O                 
1 25860U 99039A   26100.14994048  .00000584  00000+0  83374-4 0  9994
2 25860  97.9379 159.7113 0001007 113.2875 246.8444 14.80388125439041
SL-16 R/B               
1 25861U 99039B   26100.16781163  .00000549  00000+0  76315-4 0  9997
2 25861  97.9901 159.2067 0015491 150.8540 209.3540 14.81777577441525
DELTA 2 R/B             
1 25876U 99041E   26100.22635633  .00000813  00000+0  17043-3 0  9999
2 25876  51.7605 175.2966 0502603  81.4274 284.3255 14.11910539367483
