[{"OBJECT_NAME":"SL-16 R/B","OBJECT_ID":"1993-059B","EPOCH":"2026-04-10T00:38:24.121248","MEAN_MOTION":14.17237605,"ECCENTRICITY":0.00166797,"INCLINATION":70.9901,"RA_OF_ASC_NODE":305.0449,"ARG_OF_PERICENTER":169.7974,"MEAN_ANOMALY":190.3491,"EPHEMERIS_TYPE":0,"CLASSIFICATION_TYPE":"U","NORAD_CAT_ID":22803,"ELEMENT_SET_NO":999,"REV_AT_EPOCH":68397,"BSTAR":0.00014797178,"MEAN_MOTION_DOT":2.51e-6,"MEAN_MOTION_DDOT":0},{"OBJECT_NAME":"ARIANE 40 R/B","OBJECT_ID":"1993-061H","EPOCH":"2026-04-10T04:36:25.976448","MEAN_MOTION":14.32878911,"ECCENTRICITY":0.00107266,"INCLINATION":98.4862,"RA_OF_ASC_NODE":168.449,"ARG_OF_PERICENTER":184.7266,"MEAN_ANOMALY":175.3818,"EPHEMERIS_TYPE":0,"CLASSIFICATION_TYPE":"U","NORAD_CAT_ID":22830,"ELEMENT_SET_NO":999,"REV_AT_EPOCH":69861,"BSTAR":8.610004e-5,"MEAN_MOTION_DOT":1.92e-6,"MEAN_MOTION_DDOT":0},{"OBJECT_NAME":"COSMOS 2278","OBJECT_ID":"1994-023A","EPOCH":"2026-04-10T06:45:58.108320","MEAN_MOTION":14.1437673,"ECCENTRICITY":0.00095545,"INCLINATION":71.0502,"RA_OF_ASC_NODE":109.0011,"ARG_OF_PERICENTER":327.9389,"MEAN_ANOMALY":32.1151,"EPHEMERIS_TYPE":0,"CLASSIFICATION_TYPE":"U","NORAD_CAT_ID":23087,"ELEMENT_SET_NO":999,"REV_AT_EPOCH":64927,"BSTAR":0.0001385895,"MEAN_MOTION_DOT":2.18e-6,"MEAN_MOTION_DDOT":0},{"OBJECT_NAME":"SL-16 R/B","OBJECT_ID":"1994-023B","EPOCH":"2026-04-10T04:08:44.583936","MEAN_MOTION":14.15020399,"ECCENTRICITY":0.00056596,"INCLINATION":71.0031,"RA_OF_ASC_NODE":4.7704,"ARG_OF_PERICENTER":258.7504,"MEAN_ANOMALY":101.2983,"EPHEMERIS_TYPE":0,"CLASSIFICATION_TYPE":"U","NORAD_CAT_ID":23088,"ELEMENT_SET_NO":999,"REV_AT_EPOCH":65054,"BSTAR":-2.2921851e-5,"MEAN_MOTION_DOT":-9.2e-7,"MEAN_MOTION_DDOT":0},{"OBJECT_NAME":"SL-16 R/B","OBJECT_ID":"1994-074B","EPOCH":"2026-04-10T00:50:27.278880","MEAN_MOTION":14.79445554,"ECCENTRICITY":0.00079551,"INCLINATION":97.706,"RA_OF_ASC_NODE":129.5766,"ARG_OF_PERICENTER":114.4741,"MEAN_ANOMALY":275.7662,"EPHEMERIS_TYPE":0,"CLASSIFICATION_TYPE":"U","NORAD_CAT_ID":23343,"ELEMENT_SET_NO":999,"REV_AT_EPOCH":69188,"BSTAR":6.3315168e-5,"MEAN_MOTION_DOT":4.24e-6,"MEAN_MOTION_DDOT":0},{"OBJECT_NAME":"SL-16 R/B","OBJECT_ID":"1994-077B","EPOCH":"2026-04-10T05:06:20.863008","MEAN_MOTION":14.15566763,"ECCENTRICITY":0.00012875,"INCLINATION":70.9812,"RA_OF_ASC_NODE":286.1701,"ARG_OF_PERICENTER":175.3709,"MEAN_ANOMALY":184.7426,"EPHEMERIS_TYPE":0,"CLASSIFICATION_TYPE":"U","NORAD_CAT_ID":23405,"ELEMENT_SET_NO":999,"REV_AT_EPOCH":62069,"BSTAR":-2.820597e-6,"MEAN_MOTION_DOT":-5.3e-7,"MEAN_MOTION_DDOT":0},{"OBJECT_NAME":"ARIANE 40+ R/B","OBJECT_ID":"1995-021B","EPOCH":"2026-04-10T05:31:16.166208","MEAN_MOTION":14.39796477,"ECCENTRICITY":0.00075919,"INCLINATION":98.4446,"RA_OF_ASC_NODE":171.2769,"ARG_OF_PERICENTER":55.0874,"MEAN_ANOMALY":13.6752,"EPHEMERIS_TYPE":0,"CLASSIFICATION_TYPE":"U","NORAD_CAT_ID":23561,"ELEMENT_SET_NO":999,"REV_AT_EPOCH":62378,"BSTAR":9.8888095e-5,"MEAN_MOTION_DOT":2.67e-6,"MEAN_MOTION_DDOT":0},{"OBJECT_NAME":"SL-16 R/B","OBJECT_ID":"1995-058B","EPOCH":"2026-04-10T07:00:24.412608","MEAN_MOTION":14.15499634,"ECCENTRICITY":0.00104836,"INCLINATION":71.0186,"RA_OF_ASC_NODE":113.9078,"ARG_OF_PERICENTER":67.9558,"MEAN_ANOMALY":292.2677,"EPHEMERIS_TYPE":0,"CLASSIFICATION_TYPE":"U","NORAD_CAT_ID":23705,"ELEMENT_SET_NO":999,"REV_AT_EPOCH":57232,"BSTAR":0.00015569855,"MEAN_MOTION_DOT":2.57e-6,"MEAN_MOTION_DDOT":0},{"OBJECT_NAME":"SL-16 R/B","OBJECT_ID":"1996-051B","EPOCH":"2026-04-10T06:09:13.997664","MEAN_MOTION":14.12424387,"ECCENTRICITY":0.0012799,"INCLINATION":70.7579,"RA_OF_ASC_NODE":108.4245,"ARG_OF_PERICENTER":95.1919,"MEAN_ANOMALY":265.0662,"EPHEMERIS_TYPE":0,"CLASSIFICATION_TYPE":"U","NORAD_CAT_ID":24298,"ELEMENT_SET_NO":999,"REV_AT_EPOCH":52610,"BSTAR":5.1501401e-5,"MEAN_MOTION_DOT":4.6e-7,"MEAN_MOTION_DDOT":0},{"OBJECT_NAME":"ORBVIEW 2 (SEASTAR)","OBJECT_ID":"1997-037A","EPOCH":"2026-04-10T04:50:33.026496","MEAN_MOTION":14.35518299,"ECCENTRICITY":0.00017519,"INCLINATION":98.8623,"RA_OF_ASC_NODE":265.3576,"ARG_OF_PERICENTER":356.9743,"MEAN_ANOMALY":3.143,"EPHEMERIS_TYPE":0,"CLASSIFICATION_TYPE":"U","NORAD_CAT_ID":24883,"ELEMENT_SET_NO":999,"REV_AT_EPOCH":51299,"BSTAR":0.00011054915,"MEAN_MOTION_DOT":2.71e-6,"MEAN_MOTION_DDOT":0},{"OBJECT_NAME":"SL-16 R/B","OBJECT_ID":"1998-043G","EPOCH":"2026-04-09T21:13:01.095744","MEAN_MOTION":14.26057388,"ECCENTRICITY":0.0008807,"INCLINATION":98.8302,"RA_OF_ASC_NODE":53.4788,"ARG_OF_PERICENTER":286.222,"MEAN_ANOMALY":73.799,"EPHEMERIS_TYPE":0,"CLASSIFICATION_TYPE":"U","NORAD_CAT_ID":25400,"ELEMENT_SET_NO":999,"REV_AT_EPOCH":44343,"BSTAR":4.51e-5,"MEAN_MOTION_DOT":6.2e-7,"MEAN_MOTION_DDOT":0},{"OBJECT_NAME":"SL-16 R/B","OBJECT_ID":"1998-045B","EPOCH":"2026-04-10T06:53:46.895712","MEAN_MOTION":14.16196457,"ECCENTRICITY":0.00085612,"INCLINATION":71.0087,"RA_OF_ASC_NODE":115.1259,"ARG_OF_PERICENTER":322.8481,"MEAN_ANOMALY":37.2049,"EPHEMERIS_TYPE":0,"CLASSIFICATION_TYPE":"U","NORAD_CAT_ID":25407,"ELEMENT_SET_NO":999,"REV_AT_EPOCH":43157,"BSTAR":0.00016649472,"MEAN_MOTION_DOT":2.82e-6,"MEAN_MOTION_DDOT":0},{"OBJECT_NAME":"ISS (ZARYA)","OBJECT_ID":"1998-067A","EPOCH":"2026-04-10T04:46:28.718400","MEAN_MOTION":15.48858067,"ECCENTRICITY":0.0006432,"INCLINATION":51.6328,"RA_OF_ASC_NODE":276.5654,"ARG_OF_PERICENTER":294.6645,"MEAN_ANOMALY":65.3674,"EPHEMERIS_TYPE":0,"CLASSIFICATION_TYPE":"U","NORAD_CAT_ID":25544,"ELEMENT_SET_NO":999,"REV_AT_EPOCH":56121,"BSTAR":0.00013529077,"MEAN_MOTION_DOT":6.976e-5,"MEAN_MOTION_DDOT":0},{"OBJECT_NAME":"CZ-4B R/B","OBJECT_ID":"1999-025C","EPOCH":"2026-04-10T02:55:48.278784","MEAN_MOTION":14.18271886,"ECCENTRICITY":0.00360206,"INCLINATION":98.6562,"RA_OF_ASC_NODE":143.6495,"ARG_OF_PERICENTER":253.9356,"MEAN_ANOMALY":126.9829,"EPHEMERIS_TYPE":0,"CLASSIFICATION_TYPE":"U","NORAD_CAT_ID":25732,"ELEMENT_SET_NO":999,"REV_AT_EPOCH":39262,"BSTAR":3.488621e-5,"MEAN_MOTION_DOT":2.9e-7,"MEAN_MOTION_DDOT":0},{"OBJECT_NAME":"OKEAN-O","OBJECT_ID":"1999-039A","EPOCH":"2026-04-10T03:35:54.857472","MEAN_MOTION":14.80388125,"ECCENTRICITY":0.00010072,"INCLINATION":97.9379,"RA_OF_ASC_NODE":159.7113,"ARG_OF_PERICENTER":113.2875,"MEAN_ANOMALY":246.8444,"EPHEMERIS_TYPE":0,"CLASSIFICATION_TYPE":"U","NORAD_CAT_ID":25860,"ELEMENT_SET_NO":999,"REV_AT_EPOCH":43904,"BSTAR":8.3374236e-5,"MEAN_MOTION_DOT":5.84e-6,"MEAN_MOTION_DDOT":0},{"OBJECT_NAME":"SL-16 R/B","OBJECT_ID":"1999-039B","EPOCH":"2026-04-10T04:01:38.924832","MEAN_MOTION":14.81777577,"ECCENTRICITY":0.00154915,"INCLINATION":97.9901,"RA_OF_ASC_NODE":159.2067,"ARG_OF_PERICENTER":150.854,"MEAN_ANOMALY":209.354,"EPHEMERIS_TYPE":0,"CLASSIFICATION_TYPE":"U","NORAD_CAT_ID":25861,"ELEMENT_SET_NO":999,"REV_AT_EPOCH":44152,"BSTAR":7.6315377e-5,"MEAN_MOTION_DOT":5.49e-6,"MEAN_MOTION_DDOT":0},{"OBJECT_NAME":"DELTA 2 R/B","OBJECT_ID":"1999-041E","EPOCH":"2026-04-10T05:25:57.186912","MEAN_MOTION":14.11910539,"ECCENTRICITY":0.05026038,"INCLINATION":51.7605,"RA_OF_ASC_NODE":175.2966,"ARG_OF_PERICENTER":81.4274,"MEAN_ANOMALY":284.3255,"EPHEMERIS_TYPE":0,"CLASSIFICATION_TYPE":"U","NORAD_CAT_ID":25876,"ELEMENT_SET_NO":999,"REV_AT_EPOCH":36748,"BSTAR":0.00017042899,"MEAN_MOTION_DOT":8.13e-6,"MEAN_MOTION_DDOT":0}]
